#aV2022  5 13  0  0  0.00000000     288 DD+AD WGS84 FIT  NGA
## 2209 432000.00000000   300.00000000 59712 0.0000000000000
+   32     1  2  3  4  5  6  7  8  9 10 11 12 13 14 15 16 17
+         18 19 20 21 22 23 24 25 26 27 28 29 30 31 32  0  0
+          0  0  0  0  0  0  0  0  0  0  0  0  0  0  0  0  0
+          0  0  0  0  0  0  0  0  0  0  0  0  0  0  0  0  0
+          0  0  0  0  0  0  0  0  0  0  0  0  0  0  0  0  0
++         2  2  2  2  2  2  2  2  2  2  2  2  2  2  2  2  2
++         2  2  2  2  2  2  2  2  2  2  2  2  2  2  2  0  0
++         0  0  0  0  0  0  0  0  0  0  0  0  0  0  0  0  0
++         0  0  0  0  0  0  0  0  0  0  0  0  0  0  0  0  0
++         0  0  0  0  0  0  0  0  0  0  0  0  0  0  0  0  0
%c cc cc ccc ccc cccc cccc cccc cccc ccccc ccccc ccccc ccccc
%c cc cc ccc ccc cccc cccc cccc cccc ccccc ccccc ccccc ccccc
%f  0.0000000  0.000000000  0.00000000000  0.000000000000000
%f  0.0000000  0.000000000  0.00000000000  0.000000000000000
%i    0    0    0    0      0      0      0      0         0
%i    0    0    0    0      0      0      0      0         0
/*      NGA, ST. LOUIS,MO.                                  
/*   EPHEMERIS COMPUTED FROM 2 DAYS OF DATA                 
/*   EPOCHA v7 SMOOTHER                                     
/*   G2139 IERS2010 SATIGS SATAPC                           
*  2022  5 13 16 40  0.00000000
P  1  13094.434243 -10457.973570  20212.261870    363.807302                    
V  1   1585.880637  26337.403880  12758.964067     -0.083281                    
P  2 -13901.285873 -12912.449467 -17873.368532   -653.256361                    
V  2   -997.320703 -24113.298884  17710.238767      0.000751                    
P  3  23117.540145 -12748.737707   2154.220517   -242.869477                    
V  3  -1103.787917   3650.046221  31958.756904     -0.136771                    
P  4  19371.065223  -3283.385848 -17901.257040   -167.589284                    
V  4  18914.401069  12684.736558  18045.394200      0.035520                    
P  5 -21547.514380   1443.850951 -15726.767277    -81.710773                    
V  5  15146.243837 -12590.459322 -21991.896701     -0.013761                    
P  6  -5904.148561 -24629.279090  -7799.530309    301.971316                    
V  6   1617.331237 -10037.465130  30308.284625      0.145505                    
P  7   5944.478713 -23711.953799  -9340.876560    322.030851                    
V  7   3684.146364  12498.865879 -28675.547882      0.003552                    
P  8  24109.663262   3658.874461  10906.792551    -67.856445                    
V  8  11356.154910   8092.254164 -27367.801096     -0.015926                    
P  9   9899.009138 -12105.993947 -21534.259773   -337.017390                    
V  9  24117.267671  12616.176821   3976.162247      0.028781                    
P 10  -2237.254229  17451.357185  19951.744975   -413.114505                    
V 10 -21815.041034  12400.640480 -13675.348498     -0.143761                    
P 11 -12760.579697 -13856.876832 -18732.817480    -25.449004                    
V 11   1859.047110 -23737.580241  16279.068307      0.048527                    
P 12 -24366.727305   8577.059883   5627.614397   -214.889084                    
V 12   5408.789882  -5820.423173  30942.991339     -0.058485                    
P 13 -22910.730953 -12911.357932   4185.220951    310.920783                    
V 13  -3040.367166  -5148.450011 -31221.142147      0.067910                    
P 14   4112.829756 -17988.335953  19068.359162   -108.096152                    
V 14  21798.837734 -10785.222763 -14960.225070     -0.017717                    
P 15 -24238.143538   -525.230994  10790.664302    -61.542497                    
V 15 -12246.969851  -7963.721024 -26559.810161      0.029781                    
P 16  18982.132657   4584.593465 -18481.629790   -500.530800                    
V 16 -19774.892075  11241.447406 -17337.604851     -0.033157                    
P 17  -7007.399243 -18553.733016  18070.920955    612.187314                    
V 17  19449.337403  10488.417860  18810.116646      0.046250                    
P 18  -6692.612439  23472.121633 -10344.186538    171.109733                    
V 18  -2469.868535 -13108.039192 -28272.958841     -0.101047                    
P 19 -14158.975868 -19134.453953  11736.696595    156.840886                    
V 19  13637.752767   6984.721139  27031.908646      0.049773                    
P 20 -14727.818306  -7228.736529 -20842.946271    515.163917                    
V 20  19437.718878 -18161.458437  -7664.510269     -0.010238                    
P 21  15691.164394   1155.829040  22090.105622    161.062018                    
V 21   3100.250254  26300.563023  -3013.372690      0.001805                    
P 22  16096.197866  18829.374700  10238.298023    258.527587                    
V 22 -11602.314848  -4769.310735  27985.716094      0.061443                    
P 23 -12984.749758  19233.922529  12816.604156    -21.619150                    
V 23 -14777.054715   7243.989078 -25920.517711     -0.025068                    
P 24 -14761.880328   6263.552869  20824.146054    241.729727                    
V 24  -3976.566336 -27017.625753   5642.860179     -0.067134                    
P 25 -18390.077321  17674.000253  -7166.400813    324.226556                    
V 25  -9004.740871   2228.210068  30066.890644      0.048253                    
P 26   9949.444512  12246.350350 -21460.077880    205.361842                    
V 26 -22162.464892  15641.809718  -1045.203425      0.026039                    
P 27  23457.892691  12907.716113   -635.006697    202.199518                    
V 27  -1468.579105   1621.597596 -31730.809954      0.062707                    
P 28  -4735.760393 -14669.545887  22156.608430    358.555814                    
V 28  24042.658442 -12001.235291  -2648.054977     -0.065767                    
P 29 -10947.095288  10429.173305 -21896.203308   -513.234682                    
V 29 -23200.534902 -14965.923812   4417.916790     -0.039701                    
P 30    -56.544030 -26413.858692   -590.882805   -527.741348                    
V 30   3829.684565    784.333965 -31353.423697     -0.014541                    
P 31   7558.482652  23085.928883 -10298.279646   -177.456897                    
V 31  -2802.654076  13090.995634  28091.814588     -0.015867                    
P 32  10398.557340  18388.699108  16357.239324   -126.264975                    
V 32 -18942.631643  -7865.865067  20887.399847     -0.086493                    
EOF
